{
    "links": {
        "self": "http://www.neowsapp.com/rest/v1/neo/3758930?api_key=iIulBulltgU6a56xZRHN4H3l9WmuAYTsLGpBGhQ2"
    },
    "id": "3758930",
    "neo_reference_id": "3758930",
    "name": "(2016 RW1)",
    "designation": "2016 RW1",
    "nasa_jpl_url": "http://ssd.jpl.nasa.gov/sbdb.cgi?sstr=3758930",
    "absolute_magnitude_h": 27.0,
    "estimated_diameter": {
        "kilometers": {
            "estimated_diameter_min": 0.0105816886,
            "estimated_diameter_max": 0.023661375
        },
        "meters": {
            "estimated_diameter_min": 10.5816885933,
            "estimated_diameter_max": 23.6613750114
        },
        "miles": {
            "estimated_diameter_min": 0.0065751544,
            "estimated_diameter_max": 0.0147024923
        },
        "feet": {
            "estimated_diameter_min": 34.7168272045,
            "estimated_diameter_max": 77.6291855923
        }
    },
    "is_potentially_hazardous_asteroid": false,
    "close_approach_data": [
        {
            "close_approach_date": "2016-09-03",
            "close_approach_date_full": "2016-Sep-03 20:19",
            "epoch_date_close_approach": 1472933940000,
            "relative_velocity": {
                "kilometers_per_second": "7.5034429691",
                "kilometers_per_hour": "27012.3946888013",
                "miles_per_hour": "16784.4515776055"
            },
            "miss_distance": {
                "astronomical": "0.0197774932",
                "lunar": "7.6934448548",
                "kilometers": "2958670.856659484",
                "miles": "1838432.8210655192"
            },
            "orbiting_body": "Earth"
        }
    ],
    "orbital_data": {
        "orbit_id": "4",
        "orbit_determination_date": "2017-04-06 08:24:10",
        "first_observation_date": "2016-09-05",
        "last_observation_date": "2016-09-11",
        "data_arc_in_days": 6,
        "observations_used": 31,
        "orbit_uncertainty": "8",
        "minimum_orbit_intersection": ".0179091",
        "jupiter_tisserand_invariant": "3.439",
        "epoch_osculation": "2457637.5",
        "eccentricity": ".5382748661809238",
        "semi_major_axis": "2.222944176795761",
        "inclination": "4.340238150989233",
        "ascending_node_longitude": "341.869336843061",
        "orbital_period": "1210.573776392647",
        "perihelion_distance": "1.026389197503359",
        "perihelion_argument": "354.3715544147827",
        "aphelion_distance": "3.419499156088163",
        "perihelion_time": "2457631.070483649544",
        "mean_anomaly": "1.912007290510988",
        "mean_motion": ".2973796451074244",
        "equinox": "J2000",
        "orbit_class": {
            "orbit_class_type": "AMO",
            "orbit_class_description": "Near-Earth asteroid orbits similar to that of 1221 Amor",
            "orbit_class_range": "1.017 AU < q (perihelion) < 1.3 AU"
        }
    },
    "is_sentry_object": false
}